STARLINK-35907          
1 66498U 25263P   25336.83336806 -.01988210  00000+0 -15178-1 0  9990
2 66498  42.9984 183.6163 0001233 261.3399 248.3623 15.74213505  4040
STARLINK-35816          
1 66499U 25263Q   25336.83336806 -.01985910  00000+0 -15157-1 0  9992
2 66499  42.9983 183.6069 0001291 282.3143 231.2180 15.74214383  4043
STARLINK-35894          
1 66500U 25263R   25336.83336806 -.02514017  00000+0 -19356-1 0  9997
2 66500  42.9985 183.6119 0001320 281.1752 230.4313 15.74246942  4045
STARLINK-35897          
1 66501U 25263S   25336.83336806 -.01980776  00000+0 -15115-1 0  9995
2 66501  42.9983 183.6018 0001154 268.3944 247.0560 15.74212426  4045
STARLINK-35922          
1 66502U 25263T   25336.83336806 -.02009391  00000+0 -15349-1 0  9991
2 66502  42.9984 183.5870 0001328 279.4936 241.7023 15.74230158  4046
STARLINK-35917          
1 66503U 25263U   25336.25003472 -.00274986  00000+0 -18373-2 0  9991
2 66503  42.9986 187.1120 0001380 255.9733 197.7444 15.75145427  3950
STARLINK-35916          
1 66504U 25263V   25336.83336806 -.02560529  00000+0 -40263-1 0  9991
2 66504  42.9989 183.9884 0001591 267.7783  91.6122 15.56132202  4047
STARLINK-34766          
1 66505U 25263W   25336.83336806 -.01986796  00000+0 -15166-1 0  9993
2 66505  42.9984 183.5964 0001231 262.6555 254.7148 15.74213562  4049
STARLINK-34765          
1 66506U 25263X   25336.83336806 -.01980959  00000+0 -15116-1 0  9994
2 66506  42.9984 183.5924 0001265 267.9092 251.3752 15.74212259  4043
STARLINK-34767          
1 66507U 25263Y   25336.83336806 -.02020654  00000+0 -15444-1 0  9997
2 66507  42.9983 183.5818 0001252 280.8739 242.2413 15.74235495  4043
STARLINK-35608          
1 66508U 25263Z   25336.83336806 -.02001813  00000+0 -15289-1 0  9991
2 66508  42.9983 183.5679 0001340 278.7473 250.1233 15.74222606  4046
STARLINK-35598          
1 66509U 25263AA  25336.83336806 -.01996069  00000+0 -15241-1 0  9995
2 66509  42.9981 183.5470 0001164 279.9010 256.6336 15.74221311  4045
