CCSDS_OMM_VERS = 2.0
CREATION_DATE  = 
ORIGINATOR     = 

OBJECT_NAME    = STARLINK-35907
OBJECT_ID      = 2025-263P
CENTER_NAME    = EARTH
REF_FRAME      = TEME
TIME_SYSTEM    = UTC
MEAN_ELEMENT_THEORY = SGP/SGP4

EPOCH          = 2025-12-02T20:00:03.000384
MEAN_MOTION    = 15.74213505
ECCENTRICITY   = .0001233
INCLINATION    = 42.9984
RA_OF_ASC_NODE = 183.6163
ARG_OF_PERICENTER = 261.3399
MEAN_ANOMALY   = 248.3623

EPHEMERIS_TYPE = 0
CLASSIFICATION_TYPE = U
NORAD_CAT_ID   = 66498
ELEMENT_SET_NO = 999
REV_AT_EPOCH   = 404
BSTAR          = -.15178E-1
MEAN_MOTION_DOT = -.198821E-1
MEAN_MOTION_DDOT = 0

CCSDS_OMM_VERS = 2.0
CREATION_DATE  = 
ORIGINATOR     = 

OBJECT_NAME    = STARLINK-35816
OBJECT_ID      = 2025-263Q
CENTER_NAME    = EARTH
REF_FRAME      = TEME
TIME_SYSTEM    = UTC
MEAN_ELEMENT_THEORY = SGP/SGP4

EPOCH          = 2025-12-02T20:00:03.000384
MEAN_MOTION    = 15.74214383
ECCENTRICITY   = .0001291
INCLINATION    = 42.9983
RA_OF_ASC_NODE = 183.6069
ARG_OF_PERICENTER = 282.3143
MEAN_ANOMALY   = 231.2180

EPHEMERIS_TYPE = 0
CLASSIFICATION_TYPE = U
NORAD_CAT_ID   = 66499
ELEMENT_SET_NO = 999
REV_AT_EPOCH   = 404
BSTAR          = -.15157E-1
MEAN_MOTION_DOT = -.198591E-1
MEAN_MOTION_DDOT = 0

CCSDS_OMM_VERS = 2.0
CREATION_DATE  = 
ORIGINATOR     = 

OBJECT_NAME    = STARLINK-35894
OBJECT_ID      = 2025-263R
CENTER_NAME    = EARTH
REF_FRAME      = TEME
TIME_SYSTEM    = UTC
MEAN_ELEMENT_THEORY = SGP/SGP4

EPOCH          = 2025-12-02T20:00:03.000384
MEAN_MOTION    = 15.74246942
ECCENTRICITY   = .000132
INCLINATION    = 42.9985
RA_OF_ASC_NODE = 183.6119
ARG_OF_PERICENTER = 281.1752
MEAN_ANOMALY   = 230.4313

EPHEMERIS_TYPE = 0
CLASSIFICATION_TYPE = U
NORAD_CAT_ID   = 66500
ELEMENT_SET_NO = 999
REV_AT_EPOCH   = 404
BSTAR          = -.19356E-1
MEAN_MOTION_DOT = -.2514017E-1
MEAN_MOTION_DDOT = 0

CCSDS_OMM_VERS = 2.0
CREATION_DATE  = 
ORIGINATOR     = 

OBJECT_NAME    = STARLINK-35897
OBJECT_ID      = 2025-263S
CENTER_NAME    = EARTH
REF_FRAME      = TEME
TIME_SYSTEM    = UTC
MEAN_ELEMENT_THEORY = SGP/SGP4

EPOCH          = 2025-12-02T20:00:03.000384
MEAN_MOTION    = 15.74212426
ECCENTRICITY   = .0001154
INCLINATION    = 42.9983
RA_OF_ASC_NODE = 183.6018
ARG_OF_PERICENTER = 268.3944
MEAN_ANOMALY   = 247.0560

EPHEMERIS_TYPE = 0
CLASSIFICATION_TYPE = U
NORAD_CAT_ID   = 66501
ELEMENT_SET_NO = 999
REV_AT_EPOCH   = 404
BSTAR          = -.15115E-1
MEAN_MOTION_DOT = -.1980776E-1
MEAN_MOTION_DDOT = 0

CCSDS_OMM_VERS = 2.0
CREATION_DATE  = 
ORIGINATOR     = 

OBJECT_NAME    = STARLINK-35922
OBJECT_ID      = 2025-263T
CENTER_NAME    = EARTH
REF_FRAME      = TEME
TIME_SYSTEM    = UTC
MEAN_ELEMENT_THEORY = SGP/SGP4

EPOCH          = 2025-12-02T20:00:03.000384
MEAN_MOTION    = 15.74230158
ECCENTRICITY   = .0001328
INCLINATION    = 42.9984
RA_OF_ASC_NODE = 183.5870
ARG_OF_PERICENTER = 279.4936
MEAN_ANOMALY   = 241.7023

EPHEMERIS_TYPE = 0
CLASSIFICATION_TYPE = U
NORAD_CAT_ID   = 66502
ELEMENT_SET_NO = 999
REV_AT_EPOCH   = 404
BSTAR          = -.15349E-1
MEAN_MOTION_DOT = -.2009391E-1
MEAN_MOTION_DDOT = 0

CCSDS_OMM_VERS = 2.0
CREATION_DATE  = 
ORIGINATOR     = 

OBJECT_NAME    = STARLINK-35917
OBJECT_ID      = 2025-263U
CENTER_NAME    = EARTH
REF_FRAME      = TEME
TIME_SYSTEM    = UTC
MEAN_ELEMENT_THEORY = SGP/SGP4

EPOCH          = 2025-12-02T06:00:02.999808
MEAN_MOTION    = 15.75145427
ECCENTRICITY   = .00013803
INCLINATION    = 42.9986
RA_OF_ASC_NODE = 187.1120
ARG_OF_PERICENTER = 255.9733
MEAN_ANOMALY   = 197.7444

EPHEMERIS_TYPE = 0
CLASSIFICATION_TYPE = U
NORAD_CAT_ID   = 66503
ELEMENT_SET_NO = 999
REV_AT_EPOCH   = 395
BSTAR          = -.18373401E-2
MEAN_MOTION_DOT = -.274986E-2
MEAN_MOTION_DDOT = 0

CCSDS_OMM_VERS = 2.0
CREATION_DATE  = 
ORIGINATOR     = 

OBJECT_NAME    = STARLINK-35916
OBJECT_ID      = 2025-263V
CENTER_NAME    = EARTH
REF_FRAME      = TEME
TIME_SYSTEM    = UTC
MEAN_ELEMENT_THEORY = SGP/SGP4

EPOCH          = 2025-12-02T20:00:03.000384
MEAN_MOTION    = 15.56132202
ECCENTRICITY   = .0001591
INCLINATION    = 42.9989
RA_OF_ASC_NODE = 183.9884
ARG_OF_PERICENTER = 267.7783
MEAN_ANOMALY   = 91.6122

EPHEMERIS_TYPE = 0
CLASSIFICATION_TYPE = U
NORAD_CAT_ID   = 66504
ELEMENT_SET_NO = 999
REV_AT_EPOCH   = 404
BSTAR          = -.40263E-1
MEAN_MOTION_DOT = -.2560529E-1
MEAN_MOTION_DDOT = 0

CCSDS_OMM_VERS = 2.0
CREATION_DATE  = 
ORIGINATOR     = 

OBJECT_NAME    = STARLINK-34766
OBJECT_ID      = 2025-263W
CENTER_NAME    = EARTH
REF_FRAME      = TEME
TIME_SYSTEM    = UTC
MEAN_ELEMENT_THEORY = SGP/SGP4

EPOCH          = 2025-12-02T20:00:03.000384
MEAN_MOTION    = 15.74213562
ECCENTRICITY   = .0001231
INCLINATION    = 42.9984
RA_OF_ASC_NODE = 183.5964
ARG_OF_PERICENTER = 262.6555
MEAN_ANOMALY   = 254.7148

EPHEMERIS_TYPE = 0
CLASSIFICATION_TYPE = U
NORAD_CAT_ID   = 66505
ELEMENT_SET_NO = 999
REV_AT_EPOCH   = 404
BSTAR          = -.15166E-1
MEAN_MOTION_DOT = -.1986796E-1
MEAN_MOTION_DDOT = 0

CCSDS_OMM_VERS = 2.0
CREATION_DATE  = 
ORIGINATOR     = 

OBJECT_NAME    = STARLINK-34765
OBJECT_ID      = 2025-263X
CENTER_NAME    = EARTH
REF_FRAME      = TEME
TIME_SYSTEM    = UTC
MEAN_ELEMENT_THEORY = SGP/SGP4

EPOCH          = 2025-12-02T20:00:03.000384
MEAN_MOTION    = 15.74212259
ECCENTRICITY   = .0001265
INCLINATION    = 42.9984
RA_OF_ASC_NODE = 183.5924
ARG_OF_PERICENTER = 267.9092
MEAN_ANOMALY   = 251.3752

EPHEMERIS_TYPE = 0
CLASSIFICATION_TYPE = U
NORAD_CAT_ID   = 66506
ELEMENT_SET_NO = 999
REV_AT_EPOCH   = 404
BSTAR          = -.15116E-1
MEAN_MOTION_DOT = -.1980959E-1
MEAN_MOTION_DDOT = 0

CCSDS_OMM_VERS = 2.0
CREATION_DATE  = 
ORIGINATOR     = 

OBJECT_NAME    = STARLINK-34767
OBJECT_ID      = 2025-263Y
CENTER_NAME    = EARTH
REF_FRAME      = TEME
TIME_SYSTEM    = UTC
MEAN_ELEMENT_THEORY = SGP/SGP4

EPOCH          = 2025-12-02T20:00:03.000384
MEAN_MOTION    = 15.74235495
ECCENTRICITY   = .0001252
INCLINATION    = 42.9983
RA_OF_ASC_NODE = 183.5818
ARG_OF_PERICENTER = 280.8739
MEAN_ANOMALY   = 242.2413

EPHEMERIS_TYPE = 0
CLASSIFICATION_TYPE = U
NORAD_CAT_ID   = 66507
ELEMENT_SET_NO = 999
REV_AT_EPOCH   = 404
BSTAR          = -.15444E-1
MEAN_MOTION_DOT = -.2020654E-1
MEAN_MOTION_DDOT = 0

CCSDS_OMM_VERS = 2.0
CREATION_DATE  = 
ORIGINATOR     = 

OBJECT_NAME    = STARLINK-35608
OBJECT_ID      = 2025-263Z
CENTER_NAME    = EARTH
REF_FRAME      = TEME
TIME_SYSTEM    = UTC
MEAN_ELEMENT_THEORY = SGP/SGP4

EPOCH          = 2025-12-02T20:00:03.000384
MEAN_MOTION    = 15.74222606
ECCENTRICITY   = .000134
INCLINATION    = 42.9983
RA_OF_ASC_NODE = 183.5679
ARG_OF_PERICENTER = 278.7473
MEAN_ANOMALY   = 250.1233

EPHEMERIS_TYPE = 0
CLASSIFICATION_TYPE = U
NORAD_CAT_ID   = 66508
ELEMENT_SET_NO = 999
REV_AT_EPOCH   = 404
BSTAR          = -.15289E-1
MEAN_MOTION_DOT = -.2001813E-1
MEAN_MOTION_DDOT = 0

CCSDS_OMM_VERS = 2.0
CREATION_DATE  = 
ORIGINATOR     = 

OBJECT_NAME    = STARLINK-35598
OBJECT_ID      = 2025-263AA
CENTER_NAME    = EARTH
REF_FRAME      = TEME
TIME_SYSTEM    = UTC
MEAN_ELEMENT_THEORY = SGP/SGP4

EPOCH          = 2025-12-02T20:00:03.000384
MEAN_MOTION    = 15.74221311
ECCENTRICITY   = .0001164
INCLINATION    = 42.9981
RA_OF_ASC_NODE = 183.5470
ARG_OF_PERICENTER = 279.9010
MEAN_ANOMALY   = 256.6336

EPHEMERIS_TYPE = 0
CLASSIFICATION_TYPE = U
NORAD_CAT_ID   = 66509
ELEMENT_SET_NO = 999
REV_AT_EPOCH   = 404
BSTAR          = -.15241E-1
MEAN_MOTION_DOT = -.1996069E-1
MEAN_MOTION_DDOT = 0

